{
"type": "FeatureCollection",
"name": "accommodation",
"crs": { "type": "name", "properties": { "name": "urn:ogc:def:crs:OGC:1.3:CRS84" } },
"features": [
{"type":"Feature","properties":{"NAME":"Kos Merah","KML_FOLDER":"Kost","phoneNumbe":null,"Jenis":"HMO","Sewa_Bulan":null,"Sewa_Bln":"0","Estimasi":"500K","Estimasi_T":600000.0,"Berdasarka":"Rendah"},"geometry":{"type":"Point","coordinates":[106.0784139,-2.0656756]}},
{"type":"Feature","properties":{"NAME":"Kost Pondok Hijau","KML_FOLDER":"Kost","phoneNumbe":"0812-7833-6344","Jenis":"Eksklusif","Sewa_Bulan":null,"Sewa_Bln":"0","Estimasi":"500K","Estimasi_T":600000.0,"Berdasarka":"Rendah"},"geometry":{"type":"Point","coordinates":[106.079796,-2.0657582]}},
{"type":"Feature","properties":{"NAME":"Rumah kos doi","KML_FOLDER":"Kost","phoneNumbe":"0895-3299-07229","Jenis":"HMO","Sewa_Bulan":null,"Sewa_Bln":"AC:(1),1,2jt (2),1,5jt  Biasa:(1),650k (2),850k","Estimasi":"500K","Estimasi_T":650000.0,"Berdasarka":"Rendah"},"geometry":{"type":"Point","coordinates":[106.0777291,-2.0651524]}},
{"type":"Feature","properties":{"NAME":"Kos Pelangi ELFA 2","KML_FOLDER":"Kost","phoneNumbe":"0812-7212-7088","Jenis":"HMO","Sewa_Bulan":null,"Sewa_Bln":"0","Estimasi":"500K","Estimasi_T":550000.0,"Berdasarka":"Rendah"},"geometry":{"type":"Point","coordinates":[106.0796509,-2.0635719]}},
{"type":"Feature","properties":{"NAME":"Kos Pelangi Putri","KML_FOLDER":"Kost","phoneNumbe":"0851-3853-5858","Jenis":"HMO","Sewa_Bulan":null,"Sewa_Bln":"600k","Estimasi":"500K","Estimasi_T":600000.0,"Berdasarka":"Rendah"},"geometry":{"type":"Point","coordinates":[106.0778929,-2.0658021]}},
{"type":"Feature","properties":{"NAME":"KOS BALI ASRI","KML_FOLDER":"Kost","phoneNumbe":"0813-6803-0035","Jenis":"Eksklusif","Sewa_Bulan":null,"Sewa_Bln":"0","Estimasi":"500K","Estimasi_T":650000.0,"Berdasarka":"Rendah"},"geometry":{"type":"Point","coordinates":[106.0766235,-2.0645035]}},
{"type":"Feature","properties":{"NAME":"NAULI KOS","KML_FOLDER":"Kost","phoneNumbe":"0822-8161-1695","Jenis":"HMO","Sewa_Bulan":null,"Sewa_Bln":"600k","Estimasi":"500K","Estimasi_T":600000.0,"Berdasarka":"Rendah"},"geometry":{"type":"Point","coordinates":[106.0762593,-2.0640577]}},
{"type":"Feature","properties":{"NAME":"KOS PUTRI BEKAWAN","KML_FOLDER":"Kost","phoneNumbe":"0812-8940-4803","Jenis":"HMO","Sewa_Bulan":null,"Sewa_Bln":"550k","Estimasi":"500K","Estimasi_T":550000.0,"Berdasarka":"Rendah"},"geometry":{"type":"Point","coordinates":[106.0752179,-2.0638041]}},
{"type":"Feature","properties":{"NAME":"Kost Putri Leni","KML_FOLDER":"Kost","phoneNumbe":"0813-7780-2538","Jenis":"Eksklusif","Sewa_Bulan":null,"Sewa_Bln":"700k","Estimasi":"500K","Estimasi_T":700000.0,"Berdasarka":"Rendah"},"geometry":{"type":"Point","coordinates":[106.0790795,-2.0647367]}},
{"type":"Feature","properties":{"NAME":"House Of Saphire","KML_FOLDER":"Kost","phoneNumbe":"0812-7156-5998","Jenis":"Semi PBSA","Sewa_Bulan":null,"Sewa_Bln":"AC : 950 k  Non AC : 800k","Estimasi":"500K","Estimasi_T":800000.0,"Berdasarka":"Rendah"},"geometry":{"type":"Point","coordinates":[106.0784771,-2.0642193]}},
{"type":"Feature","properties":{"NAME":"Gracia Kos Putri","KML_FOLDER":"Kost","phoneNumbe":"0895-6183-22221","Jenis":"HMO","Sewa_Bulan":null,"Sewa_Bln":"AC:1,1 jt      Non AC: 800 k","Estimasi":"500K","Estimasi_T":800000.0,"Berdasarka":"Rendah"},"geometry":{"type":"Point","coordinates":[106.0766244,-2.0643823]}},
{"type":"Feature","properties":{"NAME":"KOST-AN HELEN DAHLIA NO 96 BLOK A","KML_FOLDER":"Kost","phoneNumbe":null,"Jenis":"Eksklusif","Sewa_Bulan":null,"Sewa_Bln":"750k","Estimasi":"500K","Estimasi_T":750000.0,"Berdasarka":"Rendah"},"geometry":{"type":"Point","coordinates":[106.0766681,-2.0631991]}},
{"type":"Feature","properties":{"NAME":"Kost Bu Heru","KML_FOLDER":"Kost","phoneNumbe":null,"Jenis":"HMO","Sewa_Bulan":null,"Sewa_Bln":"600k","Estimasi":"500K","Estimasi_T":600000.0,"Berdasarka":"Rendah"},"geometry":{"type":"Point","coordinates":[106.0789454,-2.064978]}},
{"type":"Feature","properties":{"NAME":"Kos Pak Wisnu","KML_FOLDER":"Kost","phoneNumbe":"0838-0024-2000","Jenis":"Eksklusif","Sewa_Bulan":null,"Sewa_Bln":"700k","Estimasi":"500K","Estimasi_T":700000.0,"Berdasarka":"Rendah"},"geometry":{"type":"Point","coordinates":[106.0817961,-2.062075]}},
{"type":"Feature","properties":{"NAME":"Kost Sultan Bangka","KML_FOLDER":"Kost","phoneNumbe":null,"Jenis":"Eksklusif","Sewa_Bulan":null,"Sewa_Bln":"0","Estimasi":"500K","Estimasi_T":750000.0,"Berdasarka":"Rendah"},"geometry":{"type":"Point","coordinates":[106.0821406,-2.068514]}},
{"type":"Feature","properties":{"NAME":"Jasmine House","KML_FOLDER":"Kost","phoneNumbe":"0812-7844-4428","Jenis":"Semi PBSA","Sewa_Bulan":null,"Sewa_Bln":"700 k","Estimasi":"500K","Estimasi_T":700000.0,"Berdasarka":"Rendah"},"geometry":{"type":"Point","coordinates":[106.077892,-2.0655892]}},
{"type":"Feature","properties":{"NAME":"Kost Putri by Ahelia","KML_FOLDER":"Kost","phoneNumbe":"0877-9221-2747","Jenis":"Semi PBSA","Sewa_Bulan":null,"Sewa_Bln":"0","Estimasi":"500K","Estimasi_T":750000.0,"Berdasarka":"Rendah"},"geometry":{"type":"Point","coordinates":[106.0786913,-2.0652186]}},
{"type":"Feature","properties":{"NAME":"Kos D’rumah Senja","KML_FOLDER":"Kost","phoneNumbe":null,"Jenis":"Semi PBSA","Sewa_Bulan":null,"Sewa_Bln":"0","Estimasi":"500K","Estimasi_T":550000.0,"Berdasarka":"Rendah"},"geometry":{"type":"Point","coordinates":[106.0792164,-2.0629869]}},
{"type":"Feature","properties":{"NAME":"KOS ORANGE","KML_FOLDER":"Kost","phoneNumbe":null,"Jenis":"Eksklusif","Sewa_Bulan":null,"Sewa_Bln":"750k","Estimasi":"500K","Estimasi_T":750000.0,"Berdasarka":"Rendah"},"geometry":{"type":"Point","coordinates":[106.0761725,-2.0616201]}},
{"type":"Feature","properties":{"NAME":"Kos Callen","KML_FOLDER":"Kost","phoneNumbe":"0822-8069-0283","Jenis":"Eksklusif","Sewa_Bulan":null,"Sewa_Bln":"600k","Estimasi":"500K","Estimasi_T":600000.0,"Berdasarka":"Rendah"},"geometry":{"type":"Point","coordinates":[106.0792943,-2.0659429]}},
{"type":"Feature","properties":{"NAME":"RUMAH KOS DEBORA","KML_FOLDER":"Kost","phoneNumbe":null,"Jenis":"Eksklusif","Sewa_Bulan":null,"Sewa_Bln":"(A)nonAC: 900k   (A)AC:1,1jt    (B)700k","Estimasi":"500K","Estimasi_T":700000.0,"Berdasarka":"Rendah"},"geometry":{"type":"Point","coordinates":[106.0792509,-2.0647553]}},
{"type":"Feature","properties":{"NAME":"Kos PakSenan","KML_FOLDER":"Kost","phoneNumbe":null,"Jenis":"HMO","Sewa_Bulan":null,"Sewa_Bln":"550k","Estimasi":"500K","Estimasi_T":550000.0,"Berdasarka":"Rendah"},"geometry":{"type":"Point","coordinates":[106.0702256,-2.0640659]}},
{"type":"Feature","properties":{"NAME":"KOS BEJO","KML_FOLDER":"Kost","phoneNumbe":"0831-6969-7283","Jenis":"Eksklusif","Sewa_Bulan":null,"Sewa_Bln":"600k","Estimasi":"500K","Estimasi_T":600000.0,"Berdasarka":"Rendah"},"geometry":{"type":"Point","coordinates":[106.075735,-2.0596764]}},
{"type":"Feature","properties":{"NAME":"Kos Graha 2","KML_FOLDER":"Kost","phoneNumbe":"0878-8200-3408","Jenis":"Eksklusif","Sewa_Bulan":null,"Sewa_Bln":"(1),650k    (2),800k","Estimasi":"500K","Estimasi_T":650000.0,"Berdasarka":"Rendah"},"geometry":{"type":"Point","coordinates":[106.0807247,-2.0627625]}},
{"type":"Feature","properties":{"NAME":"KOST Pak GITO","KML_FOLDER":"Kost","phoneNumbe":null,"Jenis":"Eksklusif","Sewa_Bulan":null,"Sewa_Bln":"(1) : 650 k  (2):800k  (3):900k","Estimasi":"500K","Estimasi_T":650000.0,"Berdasarka":"Rendah"},"geometry":{"type":"Point","coordinates":[106.0764955,-2.062585]}},
{"type":"Feature","properties":{"NAME":"Kos 4 pintu","KML_FOLDER":"Kost","phoneNumbe":null,"Jenis":"Eksklusif","Sewa_Bulan":null,"Sewa_Bln":"600k","Estimasi":"500K","Estimasi_T":600000.0,"Berdasarka":"Rendah"},"geometry":{"type":"Point","coordinates":[106.0748365,-2.062793]}},
{"type":"Feature","properties":{"NAME":"Kos Bali Inn","KML_FOLDER":"Kost","phoneNumbe":null,"Jenis":"Eksklusif","Sewa_Bulan":null,"Sewa_Bln":"650k","Estimasi":"500K","Estimasi_T":650000.0,"Berdasarka":"Rendah"},"geometry":{"type":"Point","coordinates":[106.076215,-2.0625466]}},
{"type":"Feature","properties":{"NAME":"Glory Kost Putri","KML_FOLDER":"Kost","phoneNumbe":null,"Jenis":"HMO","Sewa_Bulan":null,"Sewa_Bln":"550k","Estimasi":"500K","Estimasi_T":550000.0,"Berdasarka":"Rendah"},"geometry":{"type":"Point","coordinates":[106.0764955,-2.062585]}},
{"type":"Feature","properties":{"NAME":"Elya kos","KML_FOLDER":"Kost","phoneNumbe":"0822-8929-0801","Jenis":"Eksklusif","Sewa_Bulan":null,"Sewa_Bln":"600k","Estimasi":"500K","Estimasi_T":600000.0,"Berdasarka":"Rendah"},"geometry":{"type":"Point","coordinates":[106.0782347,-2.061139]}},
{"type":"Feature","properties":{"NAME":"Kos Zamzam","KML_FOLDER":"Kost","phoneNumbe":"0857-0300-5365","Jenis":"HMO","Sewa_Bulan":null,"Sewa_Bln":"(1):500 k  (2):700k","Estimasi":"500K","Estimasi_T":500000.0,"Berdasarka":"Rendah"},"geometry":{"type":"Point","coordinates":[106.0778486,-2.0624929]}},
{"type":"Feature","properties":{"NAME":"Kos PakUmar","KML_FOLDER":"Kost","phoneNumbe":null,"Jenis":"HMO","Sewa_Bulan":null,"Sewa_Bln":"550k","Estimasi":"500K","Estimasi_T":550000.0,"Berdasarka":"Rendah"},"geometry":{"type":"Point","coordinates":[106.069358,-2.061778]}},
{"type":"Feature","properties":{"NAME":"Kos Dian Pratomo","KML_FOLDER":"Kost","phoneNumbe":null,"Jenis":"Semi PBSA","Sewa_Bulan":null,"Sewa_Bln":"0","Estimasi":"500K","Estimasi_T":600000.0,"Berdasarka":"Rendah"},"geometry":{"type":"Point","coordinates":[106.0778889,-2.0579722]}},
{"type":"Feature","properties":{"NAME":"Kost ayie","KML_FOLDER":"Kost","phoneNumbe":null,"Jenis":"HMO","Sewa_Bulan":null,"Sewa_Bln":"550k","Estimasi":"500K","Estimasi_T":550000.0,"Berdasarka":"Rendah"},"geometry":{"type":"Point","coordinates":[106.0764957,-2.062585]}},
{"type":"Feature","properties":{"NAME":"Kos FM","KML_FOLDER":"Kost","phoneNumbe":null,"Jenis":"HMO","Sewa_Bulan":null,"Sewa_Bln":"600k","Estimasi":"500K","Estimasi_T":600000.0,"Berdasarka":"Rendah"},"geometry":{"type":"Point","coordinates":[106.0774301,-2.0626635]}},
{"type":"Feature","properties":{"NAME":"Kos Sepuh","KML_FOLDER":"Kost","phoneNumbe":null,"Jenis":"Eksklusif","Sewa_Bulan":null,"Sewa_Bln":"0","Estimasi":"500K","Estimasi_T":650000.0,"Berdasarka":"Rendah"},"geometry":{"type":"Point","coordinates":[106.0829355,-2.0620294]}},
{"type":"Feature","properties":{"NAME":"KOS GUBUK SARJANA","KML_FOLDER":"Kost","phoneNumbe":null,"Jenis":"HMO","Sewa_Bulan":null,"Sewa_Bln":"600k","Estimasi":"500K","Estimasi_T":600000.0,"Berdasarka":"Rendah"},"geometry":{"type":"Point","coordinates":[106.0750378,-2.0633386]}},
{"type":"Feature","properties":{"NAME":"Kos Danoma","KML_FOLDER":"Kost","phoneNumbe":null,"Jenis":"HMO","Sewa_Bulan":null,"Sewa_Bln":"550k","Estimasi":"500K","Estimasi_T":550000.0,"Berdasarka":"Rendah"},"geometry":{"type":"Point","coordinates":[106.0791013,-2.0634955]}},
{"type":"Feature","properties":{"NAME":"Kost Putri Aisyah","KML_FOLDER":"Kost","phoneNumbe":"0877-1330-4139","Jenis":"Eksklusif","Sewa_Bulan":null,"Sewa_Bln":"650k","Estimasi":"500K","Estimasi_T":650000.0,"Berdasarka":"Rendah"},"geometry":{"type":"Point","coordinates":[106.0819563,-2.0627319]}},
{"type":"Feature","properties":{"NAME":"Alfira kos","KML_FOLDER":"Kost","phoneNumbe":null,"Jenis":"Eksklusif","Sewa_Bulan":null,"Sewa_Bln":"600k","Estimasi":"500K","Estimasi_T":600000.0,"Berdasarka":"Rendah"},"geometry":{"type":"Point","coordinates":[106.0708861,-2.0605738]}},
{"type":"Feature","properties":{"NAME":"Kos Muslimah Huriyah","KML_FOLDER":"Kost","phoneNumbe":null,"Jenis":"HMO","Sewa_Bulan":null,"Sewa_Bln":"550k","Estimasi":"500K","Estimasi_T":550000.0,"Berdasarka":"Rendah"},"geometry":{"type":"Point","coordinates":[106.0678126,-2.0635915]}},
{"type":"Feature","properties":{"NAME":"KOS NADIRA","KML_FOLDER":"Kost","phoneNumbe":"0821-8155-3614","Jenis":"HMO","Sewa_Bulan":null,"Sewa_Bln":"600k","Estimasi":"500K","Estimasi_T":600000.0,"Berdasarka":"Rendah"},"geometry":{"type":"Point","coordinates":[106.0762061,-2.063385]}},
{"type":"Feature","properties":{"NAME":"kost pelangi ELFA","KML_FOLDER":"Kost","phoneNumbe":"0812-7212-7088","Jenis":"HMO","Sewa_Bulan":null,"Sewa_Bln":"0","Estimasi":"500K","Estimasi_T":550000.0,"Berdasarka":"Rendah"},"geometry":{"type":"Point","coordinates":[106.0580813,-2.0566268]}},
{"type":"Feature","properties":{"NAME":"kos Zahra najmi","KML_FOLDER":"Kost","phoneNumbe":"0857-0975-8799","Jenis":"Eksklusif","Sewa_Bulan":null,"Sewa_Bln":"(1):600k  (2):700k","Estimasi":"500K","Estimasi_T":600000.0,"Berdasarka":"Rendah"},"geometry":{"type":"Point","coordinates":[106.0764957,-2.062585]}},
{"type":"Feature","properties":{"NAME":"KOS A DUL","KML_FOLDER":"Kost","phoneNumbe":null,"Jenis":"HMO","Sewa_Bulan":null,"Sewa_Bln":"0","Estimasi":"500K","Estimasi_T":650000.0,"Berdasarka":"Rendah"},"geometry":{"type":"Point","coordinates":[106.0800932,-2.0627968]}},
{"type":"Feature","properties":{"NAME":"Fatimah Kost","KML_FOLDER":"Kost","phoneNumbe":null,"Jenis":"Eksklusif","Sewa_Bulan":null,"Sewa_Bln":"600k","Estimasi":"500K","Estimasi_T":600000.0,"Berdasarka":"Rendah"},"geometry":{"type":"Point","coordinates":[106.080848,-2.0610312]}},
{"type":"Feature","properties":{"NAME":"Kedai Koday","KML_FOLDER":"Kost","phoneNumbe":"0878-0172-3613","Jenis":"HMO","Sewa_Bulan":null,"Sewa_Bln":"0","Estimasi":"500K","Estimasi_T":600000.0,"Berdasarka":"Rendah"},"geometry":{"type":"Point","coordinates":[106.0744393,-2.0631781]}},
{"type":"Feature","properties":{"NAME":"BOBOSISI","KML_FOLDER":"Kost","phoneNumbe":null,"Jenis":"Semi PBSA","Sewa_Bulan":null,"Sewa_Bln":"0","Estimasi":"500K","Estimasi_T":700000.0,"Berdasarka":"Rendah"},"geometry":{"type":"Point","coordinates":[106.0812278,-2.0621637]}},
{"type":"Feature","properties":{"NAME":"Midsoft Florist","KML_FOLDER":"Kost","phoneNumbe":"0858-3095-7635","Jenis":"Eksklusif","Sewa_Bulan":null,"Sewa_Bln":"0","Estimasi":"500K","Estimasi_T":750000.0,"Berdasarka":"Rendah"},"geometry":{"type":"Point","coordinates":[106.0771531,-2.0635863]}},
{"type":"Feature","properties":{"NAME":"Joy Salad","KML_FOLDER":"Kost","phoneNumbe":null,"Jenis":"HMO","Sewa_Bulan":null,"Sewa_Bln":"0","Estimasi":"500K","Estimasi_T":550000.0,"Berdasarka":"Rendah"},"geometry":{"type":"Point","coordinates":[106.0642036,-2.0649568]}},
{"type":"Feature","properties":{"NAME":"Bintang Dormitory","KML_FOLDER":"Kost","phoneNumbe":null,"Jenis":"Eksklusif","Sewa_Bulan":null,"Sewa_Bln":"Non AC:760k  AC:900k   TV,AC,dll:1.350.000jt","Estimasi":"500K","Estimasi_T":760000.0,"Berdasarka":"Rendah"},"geometry":{"type":"Point","coordinates":[106.079338184009998,-2.06640037396232]}},
{"type":"Feature","properties":{"NAME":"Al Ibra Kos","KML_FOLDER":"Kost","phoneNumbe":null,"Jenis":"Eksklusif","Sewa_Bulan":null,"Sewa_Bln":"(A):750k   (B):600k","Estimasi":"500K","Estimasi_T":750000.0,"Berdasarka":"Rendah"},"geometry":{"type":"Point","coordinates":[106.076910085873266,-2.062052662676106]}},
{"type":"Feature","properties":{"NAME":"Griya Putri","KML_FOLDER":"Kost","phoneNumbe":null,"Jenis":"Semi PBSA","Sewa_Bulan":null,"Sewa_Bln":"800k","Estimasi":"500K","Estimasi_T":800000.0,"Berdasarka":"Rendah"},"geometry":{"type":"Point","coordinates":[106.081932890110281,-2.061426527341272]}},
{"type":"Feature","properties":{"NAME":"Kost Putri Ahlelia 2","KML_FOLDER":"Kost","phoneNumbe":null,"Jenis":"Semi PBSA","Sewa_Bulan":null,"Sewa_Bln":"0","Estimasi":"500K","Estimasi_T":650000.0,"Berdasarka":"Rendah"},"geometry":{"type":"Point","coordinates":[106.076697200694582,-2.06417966706952]}},
{"type":"Feature","properties":{"NAME":"Kost Bik Sitot","KML_FOLDER":"Kost","phoneNumbe":null,"Jenis":"HMO","Sewa_Bulan":null,"Sewa_Bln":"500k","Estimasi":"500K","Estimasi_T":550000.0,"Berdasarka":"Rendah"},"geometry":{"type":"Point","coordinates":[106.071204190399143,-2.064956497398413]}},
{"type":"Feature","properties":{"NAME":"Kost Kuning Sriwijaya","KML_FOLDER":"Kost","phoneNumbe":null,"Jenis":"Semi PBSA","Sewa_Bulan":null,"Sewa_Bln":"0","Estimasi":"500K","Estimasi_T":700000.0,"Berdasarka":"Rendah"},"geometry":{"type":"Point","coordinates":[106.078149663350317,-2.064625697035054]}},
{"type":"Feature","properties":{"NAME":"Kost Abong","KML_FOLDER":"Kost","phoneNumbe":null,"Jenis":"Eksklusif","Sewa_Bulan":null,"Sewa_Bln":"700k","Estimasi":"500K","Estimasi_T":700000.0,"Berdasarka":"Rendah"},"geometry":{"type":"Point","coordinates":[106.083232192058816,-2.061118371512417]}},
{"type":"Feature","properties":{"NAME":"Green Lestari 2","KML_FOLDER":"Kost","phoneNumbe":null,"Jenis":"Eksklusif","Sewa_Bulan":null,"Sewa_Bln":"650-700k","Estimasi":"500K","Estimasi_T":650000.0,"Berdasarka":"Rendah"},"geometry":{"type":"Point","coordinates":[106.082603538461029,-2.062299535955728]}},
{"type":"Feature","properties":{"NAME":"Elya Kost","KML_FOLDER":"Kost","phoneNumbe":null,"Jenis":"Semi PBSA","Sewa_Bulan":null,"Sewa_Bln":"600k","Estimasi":"500K","Estimasi_T":600000.0,"Berdasarka":"Rendah"},"geometry":{"type":"Point","coordinates":[106.078217716349229,-2.061879165599911]}},
{"type":"Feature","properties":{"NAME":"Kost Berlian Maharan","KML_FOLDER":"Kost","phoneNumbe":null,"Jenis":"HMO","Sewa_Bulan":null,"Sewa_Bln":"600k","Estimasi":"500K","Estimasi_T":600000.0,"Berdasarka":"Rendah"},"geometry":{"type":"Point","coordinates":[106.077755893107735,-2.061446508204717]}},
{"type":"Feature","properties":{"NAME":"Kost Tower Indah","KML_FOLDER":"Kost","phoneNumbe":null,"Jenis":"Eksklusif","Sewa_Bulan":null,"Sewa_Bln":"600k","Estimasi":"500K","Estimasi_T":600000.0,"Berdasarka":"Rendah"},"geometry":{"type":"Point","coordinates":[106.077477366471911,-2.060298785997781]}},
{"type":"Feature","properties":{"NAME":"Kos Putri Kamilan","KML_FOLDER":"Kost","phoneNumbe":null,"Jenis":"Eksklusif","Sewa_Bulan":null,"Sewa_Bln":"600k","Estimasi":"500K","Estimasi_T":600000.0,"Berdasarka":"Rendah"},"geometry":{"type":"Point","coordinates":[106.076708800567005,-2.059893087896276]}},
{"type":"Feature","properties":{"NAME":"Amanah Kos","KML_FOLDER":"Kost","phoneNumbe":null,"Jenis":"Semi PBSA","Sewa_Bulan":null,"Sewa_Bln":"880k","Estimasi":"500K","Estimasi_T":880000.0,"Berdasarka":"Sedang"},"geometry":{"type":"Point","coordinates":[106.07708493170162,-2.061448607087531]}},
{"type":"Feature","properties":{"NAME":"Kos Zamzam","KML_FOLDER":"Kost","phoneNumbe":"0857-0300-5365","Jenis":"HMO","Sewa_Bulan":null,"Sewa_Bln":"(1):500 k  (2):700k","Estimasi":"700000","Estimasi_T":700000.0,"Berdasarka":"Rendah"},"geometry":{"type":"Point","coordinates":[106.0778486,-2.0624929]}},
{"type":"Feature","properties":{"NAME":"Al Ibra Kos","KML_FOLDER":"Kost","phoneNumbe":null,"Jenis":"Eksklusif","Sewa_Bulan":null,"Sewa_Bln":"(A):750k   (B):600k","Estimasi":"500K","Estimasi_T":600000.0,"Berdasarka":"Rendah"},"geometry":{"type":"Point","coordinates":[106.076910085873266,-2.062052662676106]}},
{"type":"Feature","properties":{"NAME":"Green Lestari 2","KML_FOLDER":"Kost","phoneNumbe":null,"Jenis":"Eksklusif","Sewa_Bulan":null,"Sewa_Bln":"625-700k","Estimasi":"500K","Estimasi_T":700000.0,"Berdasarka":"Rendah"},"geometry":{"type":"Point","coordinates":[106.082603538461029,-2.062299535955728]}},
{"type":"Feature","properties":{"NAME":"Kos Sepuh","KML_FOLDER":"Kost","phoneNumbe":null,"Jenis":"Eksklusif","Sewa_Bulan":null,"Sewa_Bln":"0","Estimasi":"500K","Estimasi_T":700000.0,"Berdasarka":"Rendah"},"geometry":{"type":"Point","coordinates":[106.0829355,-2.0620294]}},
{"type":"Feature","properties":{"NAME":"Kost Khatulistiwa","KML_FOLDER":"Kost","phoneNumbe":"0813-6860-7675","Jenis":"HMO","Sewa_Bulan":null,"Sewa_Bln":"(1),650k   (2),750k","Estimasi":"500K","Estimasi_T":750000.0,"Berdasarka":"Rendah"},"geometry":{"type":"Point","coordinates":[106.0777392,-2.0659911]}},
{"type":"Feature","properties":{"NAME":"Kost Khatulistiwa","KML_FOLDER":"Kost","phoneNumbe":"0813-6860-7675","Jenis":"HMO","Sewa_Bulan":null,"Sewa_Bln":"(1),650k   (2),750k","Estimasi":"500K","Estimasi_T":650000.0,"Berdasarka":"Rendah"},"geometry":{"type":"Point","coordinates":[106.0777392,-2.0659911]}},
{"type":"Feature","properties":{"NAME":"kos Zahra najmi","KML_FOLDER":"Kost","phoneNumbe":"0857-0975-8799","Jenis":"Eksklusif","Sewa_Bulan":null,"Sewa_Bln":"(1):600k  (2):700k","Estimasi":"500K","Estimasi_T":700000.0,"Berdasarka":"Rendah"},"geometry":{"type":"Point","coordinates":[106.0764957,-2.062585]}},
{"type":"Feature","properties":{"NAME":"Kos Graha 2","KML_FOLDER":"Kost","phoneNumbe":"0878-8200-3408","Jenis":"Eksklusif","Sewa_Bulan":null,"Sewa_Bln":"(1),650k    (2),800k","Estimasi":"500K","Estimasi_T":800000.0,"Berdasarka":"Rendah"},"geometry":{"type":"Point","coordinates":[106.0807247,-2.0627625]}},
{"type":"Feature","properties":{"NAME":"KOS A DUL","KML_FOLDER":"Kost","phoneNumbe":null,"Jenis":"HMO","Sewa_Bulan":null,"Sewa_Bln":"0","Estimasi":"500K","Estimasi_T":800000.0,"Berdasarka":"Rendah"},"geometry":{"type":"Point","coordinates":[106.0800932,-2.0627968]}},
{"type":"Feature","properties":{"NAME":"KOST Pak GITO","KML_FOLDER":"Kost","phoneNumbe":null,"Jenis":"Eksklusif","Sewa_Bulan":null,"Sewa_Bln":"(1) : 650 k  (2):800k  (3):900k","Estimasi":"500K","Estimasi_T":900000.0,"Berdasarka":"Sedang"},"geometry":{"type":"Point","coordinates":[106.0764955,-2.062585]}},
{"type":"Feature","properties":{"NAME":"KOST Pak GITO","KML_FOLDER":"Kost","phoneNumbe":null,"Jenis":"Eksklusif","Sewa_Bulan":null,"Sewa_Bln":"(1) : 650 k  (2):800k  (3):900k","Estimasi":"500K","Estimasi_T":800000.0,"Berdasarka":"Rendah"},"geometry":{"type":"Point","coordinates":[106.0764955,-2.062585]}},
{"type":"Feature","properties":{"NAME":"House Of Saphire","KML_FOLDER":"Kost","phoneNumbe":"0812-7156-5998","Jenis":"Semi PBSA","Sewa_Bulan":null,"Sewa_Bln":"AC : 950 k  Non AC : 800k","Estimasi":"500K","Estimasi_T":950000.0,"Berdasarka":"Sedang"},"geometry":{"type":"Point","coordinates":[106.0784771,-2.0642193]}},
{"type":"Feature","properties":{"NAME":"Gracia Kos Putri","KML_FOLDER":"Kost","phoneNumbe":"0895-6183-22221","Jenis":"HMO","Sewa_Bulan":null,"Sewa_Bln":"AC:1,1 jt      Non AC: 800 k","Estimasi":"500K","Estimasi_T":1100000.0,"Berdasarka":"Sedang"},"geometry":{"type":"Point","coordinates":[106.0766244,-2.0643823]}},
{"type":"Feature","properties":{"NAME":"RUMAH KOS DEBORA","KML_FOLDER":"Kost","phoneNumbe":null,"Jenis":"Eksklusif","Sewa_Bulan":null,"Sewa_Bln":"(A)nonAC: 900k   (A)AC:1,1jt    (B)700k","Estimasi":"500K","Estimasi_T":1100000.0,"Berdasarka":"Sedang"},"geometry":{"type":"Point","coordinates":[106.0792509,-2.0647553]}},
{"type":"Feature","properties":{"NAME":"RUMAH KOS DEBORA","KML_FOLDER":"Kost","phoneNumbe":null,"Jenis":"Eksklusif","Sewa_Bulan":null,"Sewa_Bln":"(A)nonAC: 900k   (A)AC:1,1jt    (B)700k","Estimasi":"500K","Estimasi_T":900000.0,"Berdasarka":"Sedang"},"geometry":{"type":"Point","coordinates":[106.0792509,-2.0647553]}},
{"type":"Feature","properties":{"NAME":"Rumah kos doi","KML_FOLDER":"Kost","phoneNumbe":"0895-3299-07229","Jenis":"HMO","Sewa_Bulan":null,"Sewa_Bln":"AC:(1),1,2jt (2),1,5jt  Biasa:(1),650k (2),850k","Estimasi":"500K","Estimasi_T":1500000.0,"Berdasarka":"Tinggi"},"geometry":{"type":"Point","coordinates":[106.0777291,-2.0651524]}},
{"type":"Feature","properties":{"NAME":"Rumah kos doi","KML_FOLDER":"Kost","phoneNumbe":"0895-3299-07229","Jenis":"HMO","Sewa_Bulan":null,"Sewa_Bln":"AC:(1),1,2jt (2),1,5jt  Biasa:(1),650k (2),850k","Estimasi":"500K","Estimasi_T":1200000.0,"Berdasarka":"Tinggi"},"geometry":{"type":"Point","coordinates":[106.0777291,-2.0651524]}},
{"type":"Feature","properties":{"NAME":"Rumah kos doi","KML_FOLDER":"Kost","phoneNumbe":"0895-3299-07229","Jenis":"HMO","Sewa_Bulan":null,"Sewa_Bln":"AC:(1),1,2jt (2),1,5jt  Biasa:(1),650k (2),850k","Estimasi":"500K","Estimasi_T":850000.0,"Berdasarka":"Sedang"},"geometry":{"type":"Point","coordinates":[106.0777291,-2.0651524]}},
{"type":"Feature","properties":{"NAME":"Bintang Dormitory","KML_FOLDER":"Kost","phoneNumbe":null,"Jenis":"Eksklusif","Sewa_Bulan":null,"Sewa_Bln":"Non AC:760k  AC:900k   TV,AC,dll:1.350.000jt","Estimasi":"500K","Estimasi_T":1350000.0,"Berdasarka":"Tinggi"},"geometry":{"type":"Point","coordinates":[106.079338184009998,-2.06640037396232]}},
{"type":"Feature","properties":{"NAME":"Bintang Dormitory","KML_FOLDER":"Kost","phoneNumbe":null,"Jenis":"Eksklusif","Sewa_Bulan":null,"Sewa_Bln":"Non AC:760k  AC:900k   TV,AC,dll:1.350.000jt","Estimasi":"500K","Estimasi_T":900000.0,"Berdasarka":"Sedang"},"geometry":{"type":"Point","coordinates":[106.079338184009998,-2.06640037396232]}}
]
}
